{"type": "FeatureCollection", "features": [ {"type": "Feature", "properties": {"norad_id": 31442, "name": "FENGYUN 1C DEB", "group": "fengyun-1c-debris", "lat": -7.644430125832022, "lon": 76.39248407059651, "alt_km": 727.3018624298529, "timestamp": "2025-12-15T07:02:37.899268+00:00", "meta": {"OBJECT_NAME": "FENGYUN 1C DEB", "OBJECT_ID": "1999-025BUE", "EPOCH": "2025-12-13T23:15:38.407392", "MEAN_MOTION": 14.33932663, "ECCENTRICITY": 0.0079016, "INCLINATION": 98.5308, "RA_OF_ASC_NODE": 73.932, "ARG_OF_PERICENTER": 9.0794, "MEAN_ANOMALY": 351.1798, "EPHEMERIS_TYPE": 0, "CLASSIFICATION_TYPE": "U", "NORAD_CAT_ID": 31442, "ELEMENT_SET_NO": 999, "REV_AT_EPOCH": 97378, "BSTAR": 0.00046189361, "MEAN_MOTION_DOT": 1.29e-05, "MEAN_MOTION_DDOT": 0}, "tle": {"line1": "1 31442U 99025BUE 25347.96919453  .00001290  00000+0  46189-3 0  9998", "line2": "2 31442  98.5308  73.9320 0079016   9.0794 351.1798 14.33932663973783"}}, "geometry": {"type": "Point", "coordinates": [76.39248407059651, -7.644430125832022]}}, {"type": "Feature", "properties": {"norad_id": 31443, "name": "FENGYUN 1C DEB", "group": "fengyun-1c-debris", "lat": -16.900393460303412, "lon": -93.82370440860583, "alt_km": 770.7239689986836, "timestamp": "2025-12-15T07:02:37.899278+00:00", "meta": {"OBJECT_NAME": "FENGYUN 1C DEB", "OBJECT_ID": "1999-025BUF", "EPOCH": "2025-12-14T00:19:13.940256", "MEAN_MOTION": 14.48704109, "ECCENTRICITY": 0.01917925, "INCLINATION": 99.2105, "RA_OF_ASC_NODE": 87.6059, "ARG_OF_PERICENTER": 94.4301, "MEAN_ANOMALY": 267.8828, "EPHEMERIS_TYPE": 0, "CLASSIFICATION_TYPE": "U", "NORAD_CAT_ID": 31443, "ELEMENT_SET_NO": 999, "REV_AT_EPOCH": 66960, "BSTAR": 0.0013945487, "MEAN_MOTION_DOT": 6.586e-05, "MEAN_MOTION_DDOT": 0}, "tle": {"line1": "1 31443U 99025BUF 25348.01335579  .00006586  00000+0  13945-2 0  9993", "line2": "2 31443  99.2105  87.6059 0191792  94.4301 267.8828 14.48704109669604"}}, "geometry": {"type": "Point", "coordinates": [-93.82370440860583, -16.900393460303412]}}, {"type": "Feature", "properties": {"norad_id": 31444, "name": "FENGYUN 1C DEB", "group": "fengyun-1c-debris", "lat": -0.37202567837406075, "lon": -68.37062793241194, "alt_km": 645.1242047709256, "timestamp": "2025-12-15T07:02:37.899288+00:00", "meta": {"OBJECT_NAME": "FENGYUN 1C DEB", "OBJECT_ID": "1999-025BUG", "EPOCH": "2025-12-13T02:46:06.395520", "MEAN_MOTION": 14.69921274, "ECCENTRICITY": 0.00627216, "INCLINATION": 98.9271, "RA_OF_ASC_NODE": 289.1899, "ARG_OF_PERICENTER": 71.2877, "MEAN_ANOMALY": 289.512, "EPHEMERIS_TYPE": 0, "CLASSIFICATION_TYPE": "U", "NORAD_CAT_ID": 31444, "ELEMENT_SET_NO": 999, "REV_AT_EPOCH": 97494, "BSTAR": 0.0022571929, "MEAN_MOTION_DOT": 0.00013891, "MEAN_MOTION_DDOT": 0}, "tle": {"line1": "1 31444U 99025BUG 25347.11535180  .00013891  00000+0  22572-2 0  9997", "line2": "2 31444  98.9271 289.1899 0062721  71.2877 289.5120 14.69921274974945"}}, "geometry": {"type": "Point", "coordinates": [-68.37062793241194, -0.37202567837406075]}}, {"type": "Feature", "properties": {"norad_id": 31447, "name": "FENGYUN 1C DEB", "group": "fengyun-1c-debris", "lat": -22.277225229044426, "lon": 34.32566574307182, "alt_km": 653.9302626779272, "timestamp": "2025-12-15T07:02:37.899298+00:00", "meta": {"OBJECT_NAME": "FENGYUN 1C DEB", "OBJECT_ID": "1999-025BUK", "EPOCH": "2025-12-14T21:01:38.356896", "MEAN_MOTION": 14.2403744, "ECCENTRICITY": 0.02304397, "INCLINATION": 98.9919, "RA_OF_ASC_NODE": 30.1793, "ARG_OF_PERICENTER": 349.1545, "MEAN_ANOMALY": 10.471, "EPHEMERIS_TYPE": 0, "CLASSIFICATION_TYPE": "U", "NORAD_CAT_ID": 31447, "ELEMENT_SET_NO": 999, "REV_AT_EPOCH": 64882, "BSTAR": 0.00018562598, "MEAN_MOTION_DOT": 5.08e-06, "MEAN_MOTION_DDOT": 0}, "tle": {"line1": "1 31447U 99025BUK 25348.87613839  .00000508  00000+0  18563-3 0  9999", "line2": "2 31447  98.9919  30.1793 0230439 349.1545  10.4710 14.24037440648821"}}, "geometry": {"type": "Point", "coordinates": [34.32566574307182, -22.277225229044426]}}, {"type": "Feature", "properties": {"norad_id": 31448, "name": "FENGYUN 1C DEB", "group": "fengyun-1c-debris", "lat": 27.03873980122341, "lon": -3.862540479526249, "alt_km": 839.3906044400965, "timestamp": "2025-12-15T07:02:37.899312+00:00", "meta": {"OBJECT_NAME": "FENGYUN 1C DEB", "OBJECT_ID": "1999-025BUL", "EPOCH": "2025-12-11T07:02:55.403520", "MEAN_MOTION": 14.278066, "ECCENTRICITY": 0.00588763, "INCLINATION": 98.5011, "RA_OF_ASC_NODE": 356.6233, "ARG_OF_PERICENTER": 208.3666, "MEAN_ANOMALY": 151.4306, "EPHEMERIS_TYPE": 0, "CLASSIFICATION_TYPE": "U", "NORAD_CAT_ID": 31448, "ELEMENT_SET_NO": 999, "REV_AT_EPOCH": 64283, "BSTAR": 0.0011152887, "MEAN_MOTION_DOT": 2.766e-05, "MEAN_MOTION_DDOT": 0}, "tle": {"line1": "1 31448U 99025BUL 25345.29369680  .00002766  00000+0  11153-2 0  9990", "line2": "2 31448  98.5011 356.6233 0058876 208.3666 151.4306 14.27806600642836"}}, "geometry": {"type": "Point", "coordinates": [-3.862540479526249, 27.03873980122341]}}, {"type": "Feature", "properties": {"norad_id": 31449, "name": "FENGYUN 1C DEB", "group": "fengyun-1c-debris", "lat": 64.25531499604169, "lon": 29.590287534922854, "alt_km": 872.2788260998796, "timestamp": "2025-12-15T07:02:37.899323+00:00", "meta": {"OBJECT_NAME": "FENGYUN 1C DEB", "OBJECT_ID": "1999-025BUM", "EPOCH": "2025-12-10T21:12:43.510752", "MEAN_MOTION": 14.33705066, "ECCENTRICITY": 0.0144053, "INCLINATION": 98.5553, "RA_OF_ASC_NODE": 43.4188, "ARG_OF_PERICENTER": 274.279, "MEAN_ANOMALY": 84.1945, "EPHEMERIS_TYPE": 0, "CLASSIFICATION_TYPE": "U", "NORAD_CAT_ID": 31449, "ELEMENT_SET_NO": 999, "REV_AT_EPOCH": 97610, "BSTAR": 0.00033048, "MEAN_MOTION_DOT": 9.81e-06, "MEAN_MOTION_DDOT": 0}, "tle": {"line1": "1 31449U 99025BUM 25344.88383693  .00000981  00000+0  33048-3 0  9990", "line2": "2 31449  98.5553  43.4188 0144053 274.2790  84.1945 14.33705066976103"}}, "geometry": {"type": "Point", "coordinates": [29.590287534922854, 64.25531499604169]}}, {"type": "Feature", "properties": {"norad_id": 31451, "name": "FENGYUN 1C DEB", "group": "fengyun-1c-debris", "lat": 11.951885876793453, "lon": 29.44303508593606, "alt_km": 870.2937240232777, "timestamp": "2025-12-15T07:02:37.899333+00:00", "meta": {"OBJECT_NAME": "FENGYUN 1C DEB", "OBJECT_ID": "1999-025BUP", "EPOCH": "2025-12-14T02:22:34.506336", "MEAN_MOTION": 14.13625944, "ECCENTRICITY": 0.00312643, "INCLINATION": 98.7635, "RA_OF_ASC_NODE": 30.1439, "ARG_OF_PERICENTER": 207.7192, "MEAN_ANOMALY": 209.0162, "EPHEMERIS_TYPE": 0, "CLASSIFICATION_TYPE": "U", "NORAD_CAT_ID": 31451, "ELEMENT_SET_NO": 999, "REV_AT_EPOCH": 96029, "BSTAR": 0.00047351564, "MEAN_MOTION_DOT": 8.54e-06, "MEAN_MOTION_DDOT": 0}, "tle": {"line1": "1 31451U 99025BUP 25348.09901049  .00000854  00000+0  47352-3 0  9993", "line2": "2 31451  98.7635  30.1439 0031264 207.7192 209.0162 14.13625944960293"}}, "geometry": {"type": "Point", "coordinates": [29.44303508593606, 11.951885876793453]}}, {"type": "Feature", "properties": {"norad_id": 31452, "name": "FENGYUN 1C DEB", "group": "fengyun-1c-debris", "lat": -73.81564326845375, "lon": 7.828101530996513, "alt_km": 877.1794149692541, "timestamp": "2025-12-15T07:02:37.899344+00:00", "meta": {"OBJECT_NAME": "FENGYUN 1C DEB", "OBJECT_ID": "1999-025BUQ", "EPOCH": "2025-12-11T21:57:24.094080", "MEAN_MOTION": 14.1516601, "ECCENTRICITY": 0.0040751, "INCLINATION": 98.6581, "RA_OF_ASC_NODE": 332.8811, "ARG_OF_PERICENTER": 130.1744, "MEAN_ANOMALY": 230.301, "EPHEMERIS_TYPE": 0, "CLASSIFICATION_TYPE": "U", "NORAD_CAT_ID": 31452, "ELEMENT_SET_NO": 999, "REV_AT_EPOCH": 96194, "BSTAR": 0.0005253, "MEAN_MOTION_DOT": 9.86e-06, "MEAN_MOTION_DDOT": 0}, "tle": {"line1": "1 31452U 99025BUQ 25345.91486220  .00000986  00000+0  52530-3 0  9991", "line2": "2 31452  98.6581 332.8811 0040751 130.1744 230.3010 14.15166010961940"}}, "geometry": {"type": "Point", "coordinates": [7.828101530996513, -73.81564326845375]}}, {"type": "Feature", "properties": {"norad_id": 31455, "name": "FENGYUN 1C DEB", "group": "fengyun-1c-debris", "lat": -47.132159622928626, "lon": 148.0568864548681, "alt_km": 1019.0194687282356, "timestamp": "2025-12-15T07:02:37.899354+00:00", "meta": {"OBJECT_NAME": "FENGYUN 1C DEB", "OBJECT_ID": "1999-025BUT", "EPOCH": "2025-12-13T16:32:46.320000", "MEAN_MOTION": 14.11430742, "ECCENTRICITY": 0.02186224, "INCLINATION": 98.5744, "RA_OF_ASC_NODE": 335.8776, "ARG_OF_PERICENTER": 48.5391, "MEAN_ANOMALY": 313.4329, "EPHEMERIS_TYPE": 0, "CLASSIFICATION_TYPE": "U", "NORAD_CAT_ID": 31455, "ELEMENT_SET_NO": 999, "REV_AT_EPOCH": 96117, "BSTAR": 0.00041606802, "MEAN_MOTION_DOT": 9.02e-06, "MEAN_MOTION_DDOT": 0}, "tle": {"line1": "1 31455U 99025BUT 25347.68942500  .00000902  00000+0  41607-3 0  9999", "line2": "2 31455  98.5744 335.8776 0218622  48.5391 313.4329 14.11430742961173"}}, "geometry": {"type": "Point", "coordinates": [148.0568864548681, -47.132159622928626]}}, {"type": "Feature", "properties": {"norad_id": 31456, "name": "FENGYUN 1C DEB", "group": "fengyun-1c-debris", "lat": 44.78544673758289, "lon": -79.73182094936499, "alt_km": 794.3902548442729, "timestamp": "2025-12-15T07:02:37.899364+00:00", "meta": {"OBJECT_NAME": "FENGYUN 1C DEB", "OBJECT_ID": "1999-025BUU", "EPOCH": "2025-12-13T12:47:54.236832", "MEAN_MOTION": 14.42408216, "ECCENTRICITY": 0.00675973, "INCLINATION": 98.5769, "RA_OF_ASC_NODE": 89.8836, "ARG_OF_PERICENTER": 311.9856, "MEAN_ANOMALY": 47.5588, "EPHEMERIS_TYPE": 0, "CLASSIFICATION_TYPE": "U", "NORAD_CAT_ID": 31456, "ELEMENT_SET_NO": 999, "REV_AT_EPOCH": 97478, "BSTAR": 0.0013308034, "MEAN_MOTION_DOT": 4.48e-05, "MEAN_MOTION_DDOT": 0}, "tle": {"line1": "1 31456U 99025BUU 25347.53326663  .00004480  00000+0  13308-2 0  9991", "line2": "2 31456  98.5769  89.8836 0067597 311.9856  47.5588 14.42408216974788"}}, "geometry": {"type": "Point", "coordinates": [-79.73182094936499, 44.78544673758289]}}]}